[{"OBJECT_NAME":"DEIMOS-2","OBJECT_ID":"2014-033D","EPOCH":"2026-02-01T21:56:50.429184","MEAN_MOTION":14.93246251,"ECCENTRICITY":0.00020982,"INCLINATION":97.6032,"RA_OF_ASC_NODE":272.0262,"ARG_OF_PERICENTER":70.2703,"MEAN_ANOMALY":289.8743,"EPHEMERIS_TYPE":0,"CLASSIFICATION_TYPE":"U","NORAD_CAT_ID":40013,"ELEMENT_SET_NO":999,"REV_AT_EPOCH":61753,"BSTAR":0.00021851498,"MEAN_MOTION_DOT":2.231e-5,"MEAN_MOTION_DDOT":0},{"OBJECT_NAME":"HODOYOSHI-3","OBJECT_ID":"2014-033F","EPOCH":"2026-02-01T23:17:29.890176","MEAN_MOTION":14.85024477,"ECCENTRICITY":0.00344216,"INCLINATION":97.6238,"RA_OF_ASC_NODE":201.5956,"ARG_OF_PERICENTER":80.5137,"MEAN_ANOMALY":279.9967,"EPHEMERIS_TYPE":0,"CLASSIFICATION_TYPE":"U","NORAD_CAT_ID":40015,"ELEMENT_SET_NO":999,"REV_AT_EPOCH":62755,"BSTAR":0.00014824553,"MEAN_MOTION_DOT":1.226e-5,"MEAN_MOTION_DDOT":0},{"OBJECT_NAME":"SPOT 7","OBJECT_ID":"2014-034A","EPOCH":"2026-02-01T21:49:59.530656","MEAN_MOTION":14.60815597,"ECCENTRICITY":0.00010679,"INCLINATION":98.0829,"RA_OF_ASC_NODE":98.7884,"ARG_OF_PERICENTER":82.3111,"MEAN_ANOMALY":277.8211,"EPHEMERIS_TYPE":0,"CLASSIFICATION_TYPE":"U","NORAD_CAT_ID":40053,"ELEMENT_SET_NO":999,"REV_AT_EPOCH":61738,"BSTAR":0.00011579597,"MEAN_MOTION_DOT":5.2e-6,"MEAN_MOTION_DDOT":0},{"OBJECT_NAME":"SKYSAT-B","OBJECT_ID":"2014-037D","EPOCH":"2026-02-01T19:29:35.331936","MEAN_MOTION":14.8756859,"ECCENTRICITY":0.00058635,"INCLINATION":98.3675,"RA_OF_ASC_NODE":344.2414,"ARG_OF_PERICENTER":11.9673,"MEAN_ANOMALY":348.168,"EPHEMERIS_TYPE":0,"CLASSIFICATION_TYPE":"U","NORAD_CAT_ID":40072,"ELEMENT_SET_NO":999,"REV_AT_EPOCH":62583,"BSTAR":0.00022986779,"MEAN_MOTION_DOT":2.027e-5,"MEAN_MOTION_DDOT":0},{"OBJECT_NAME":"WORLDVIEW-3 (WV-3)","OBJECT_ID":"2014-048A","EPOCH":"2026-02-01T22:10:00.862176","MEAN_MOTION":14.84744485,"ECCENTRICITY":0.00024449,"INCLINATION":97.8702,"RA_OF_ASC_NODE":109.5784,"ARG_OF_PERICENTER":63.5531,"MEAN_ANOMALY":296.5935,"EPHEMERIS_TYPE":0,"CLASSIFICATION_TYPE":"U","NORAD_CAT_ID":40115,"ELEMENT_SET_NO":999,"REV_AT_EPOCH":62183,"BSTAR":0.00013833605,"MEAN_MOTION_DOT":1.119e-5,"MEAN_MOTION_DDOT":0},{"OBJECT_NAME":"GAOFEN-2","OBJECT_ID":"2014-049A","EPOCH":"2026-02-01T23:10:48.520704","MEAN_MOTION":14.80711251,"ECCENTRICITY":0.00065027,"INCLINATION":98.0308,"RA_OF_ASC_NODE":97.2058,"ARG_OF_PERICENTER":320.4266,"MEAN_ANOMALY":39.6471,"EPHEMERIS_TYPE":0,"CLASSIFICATION_TYPE":"U","NORAD_CAT_ID":40118,"ELEMENT_SET_NO":999,"REV_AT_EPOCH":61922,"BSTAR":5.5658048e-5,"MEAN_MOTION_DOT":3.75e-6,"MEAN_MOTION_DDOT":0},{"OBJECT_NAME":"YAOGAN-21","OBJECT_ID":"2014-053A","EPOCH":"2026-02-01T23:05:43.156320","MEAN_MOTION":15.24373644,"ECCENTRICITY":0.00076559,"INCLINATION":97.1686,"RA_OF_ASC_NODE":79.0497,"ARG_OF_PERICENTER":200.8558,"MEAN_ANOMALY":159.2369,"EPHEMERIS_TYPE":0,"CLASSIFICATION_TYPE":"U","NORAD_CAT_ID":40143,"ELEMENT_SET_NO":999,"REV_AT_EPOCH":63434,"BSTAR":0.00018402315,"MEAN_MOTION_DOT":4.442e-5,"MEAN_MOTION_DDOT":0},{"OBJECT_NAME":"YAOGAN-22","OBJECT_ID":"2014-063A","EPOCH":"2026-02-01T23:12:04.571712","MEAN_MOTION":13.15525367,"ECCENTRICITY":0.00067679,"INCLINATION":100.7471,"RA_OF_ASC_NODE":182.1194,"ARG_OF_PERICENTER":132.9559,"MEAN_ANOMALY":227.2121,"EPHEMERIS_TYPE":0,"CLASSIFICATION_TYPE":"U","NORAD_CAT_ID":40275,"ELEMENT_SET_NO":999,"REV_AT_EPOCH":54203,"BSTAR":5.5278703e-5,"MEAN_MOTION_DOT":-2.6e-7,"MEAN_MOTION_DDOT":0},{"OBJECT_NAME":"ASNARO","OBJECT_ID":"2014-070A","EPOCH":"2026-02-01T21:39:39.442176","MEAN_MOTION":15.19368336,"ECCENTRICITY":0.00043611,"INCLINATION":97.358,"RA_OF_ASC_NODE":112.586,"ARG_OF_PERICENTER":257.962,"MEAN_ANOMALY":102.1126,"EPHEMERIS_TYPE":0,"CLASSIFICATION_TYPE":"U","NORAD_CAT_ID":40298,"ELEMENT_SET_NO":999,"REV_AT_EPOCH":62346,"BSTAR":0.00038505463,"MEAN_MOTION_DOT":8.081e-5,"MEAN_MOTION_DDOT":0},{"OBJECT_NAME":"YAOGAN-24","OBJECT_ID":"2014-072A","EPOCH":"2026-02-01T23:44:30.431040","MEAN_MOTION":14.76148621,"ECCENTRICITY":0.00128062,"INCLINATION":98.125,"RA_OF_ASC_NODE":169.3653,"ARG_OF_PERICENTER":342.4099,"MEAN_ANOMALY":17.6665,"EPHEMERIS_TYPE":0,"CLASSIFICATION_TYPE":"U","NORAD_CAT_ID":40310,"ELEMENT_SET_NO":999,"REV_AT_EPOCH":60377,"BSTAR":0.00011996177,"MEAN_MOTION_DOT":7.77e-6,"MEAN_MOTION_DDOT":0},{"OBJECT_NAME":"CBERS 4","OBJECT_ID":"2014-079A","EPOCH":"2026-02-01T22:55:36.536736","MEAN_MOTION":14.35504621,"ECCENTRICITY":0.00012925,"INCLINATION":98.3229,"RA_OF_ASC_NODE":94.2005,"ARG_OF_PERICENTER":53.9843,"MEAN_ANOMALY":306.1463,"EPHEMERIS_TYPE":0,"CLASSIFICATION_TYPE":"U","NORAD_CAT_ID":40336,"ELEMENT_SET_NO":999,"REV_AT_EPOCH":58455,"BSTAR":1.5187419e-5,"MEAN_MOTION_DOT":2.0e-8,"MEAN_MOTION_DDOT":0},{"OBJECT_NAME":"YAOGAN-26","OBJECT_ID":"2014-088A","EPOCH":"2026-02-01T23:44:59.208288","MEAN_MOTION":15.41542271,"ECCENTRICITY":0.00055478,"INCLINATION":97.0646,"RA_OF_ASC_NODE":36.9161,"ARG_OF_PERICENTER":152.6007,"MEAN_ANOMALY":207.5534,"EPHEMERIS_TYPE":0,"CLASSIFICATION_TYPE":"U","NORAD_CAT_ID":40362,"ELEMENT_SET_NO":999,"REV_AT_EPOCH":61683,"BSTAR":0.00056857779,"MEAN_MOTION_DOT":0.00023842,"MEAN_MOTION_DDOT":0},{"OBJECT_NAME":"SMAP","OBJECT_ID":"2015-003A","EPOCH":"2026-02-01T23:14:34.340064","MEAN_MOTION":14.63427183,"ECCENTRICITY":0.00014325,"INCLINATION":98.13,"RA_OF_ASC_NODE":41.9596,"ARG_OF_PERICENTER":91.2434,"MEAN_ANOMALY":268.8932,"EPHEMERIS_TYPE":0,"CLASSIFICATION_TYPE":"U","NORAD_CAT_ID":40376,"ELEMENT_SET_NO":999,"REV_AT_EPOCH":58784,"BSTAR":0.00012038321,"MEAN_MOTION_DOT":5.76e-6,"MEAN_MOTION_DDOT":0},{"OBJECT_NAME":"KOMPSAT-3A","OBJECT_ID":"2015-014A","EPOCH":"2026-02-01T23:18:24.348960","MEAN_MOTION":15.467426,"ECCENTRICITY":0.00640079,"INCLINATION":97.6823,"RA_OF_ASC_NODE":15.2432,"ARG_OF_PERICENTER":310.6364,"MEAN_ANOMALY":48.9329,"EPHEMERIS_TYPE":0,"CLASSIFICATION_TYPE":"U","NORAD_CAT_ID":40536,"ELEMENT_SET_NO":999,"REV_AT_EPOCH":60086,"BSTAR":0.00049612568,"MEAN_MOTION_DOT":0.00026843,"MEAN_MOTION_DDOT":0},{"OBJECT_NAME":"SENTINEL-2A","OBJECT_ID":"2015-028A","EPOCH":"2026-02-01T23:06:44.941824","MEAN_MOTION":14.30818124,"ECCENTRICITY":0.00010934,"INCLINATION":98.5643,"RA_OF_ASC_NODE":109.788,"ARG_OF_PERICENTER":96.6236,"MEAN_ANOMALY":263.5072,"EPHEMERIS_TYPE":0,"CLASSIFICATION_TYPE":"U","NORAD_CAT_ID":40697,"ELEMENT_SET_NO":999,"REV_AT_EPOCH":55439,"BSTAR":4.8817407e-5,"MEAN_MOTION_DOT":8.4e-7,"MEAN_MOTION_DDOT":0},{"OBJECT_NAME":"GAOFEN-8","OBJECT_ID":"2015-030A","EPOCH":"2026-02-01T23:36:38.076192","MEAN_MOTION":15.40843897,"ECCENTRICITY":0.00098396,"INCLINATION":97.6907,"RA_OF_ASC_NODE":218.7066,"ARG_OF_PERICENTER":323.0826,"MEAN_ANOMALY":36.9741,"EPHEMERIS_TYPE":0,"CLASSIFICATION_TYPE":"U","NORAD_CAT_ID":40701,"ELEMENT_SET_NO":999,"REV_AT_EPOCH":59059,"BSTAR":0.00030026276,"MEAN_MOTION_DOT":0.00012251,"MEAN_MOTION_DDOT":0},{"OBJECT_NAME":"CARBONITE 1 (CBNT-1)","OBJECT_ID":"2015-032D","EPOCH":"2026-02-01T23:58:53.903136","MEAN_MOTION":14.83040895,"ECCENTRICITY":0.00151369,"INCLINATION":97.6419,"RA_OF_ASC_NODE":216.8019,"ARG_OF_PERICENTER":23.2124,"MEAN_ANOMALY":336.9771,"EPHEMERIS_TYPE":0,"CLASSIFICATION_TYPE":"U","NORAD_CAT_ID":40718,"ELEMENT_SET_NO":999,"REV_AT_EPOCH":56930,"BSTAR":0.00031936444,"MEAN_MOTION_DOT":2.552e-5,"MEAN_MOTION_DDOT":0}]
