DEIMOS-2                
1 40013U 14033D   26032.91447256  .00002231  00000+0  21851-3 0  9997
2 40013  97.6032 272.0262 0002098  70.2703 289.8743 14.93246251617536
HODOYOSHI-3             
1 40015U 14033F   26032.97048484  .00001226  00000+0  14825-3 0  9991
2 40015  97.6238 201.5956 0034421  80.5137 279.9967 14.85024477627559
SPOT 7                  
1 40053U 14034A   26032.90971679  .00000520  00000+0  11580-3 0  9999
2 40053  98.0829  98.7884 0001067  82.3111 277.8211 14.60815597617383
SKYSAT-B                
1 40072U 14037D   26032.81221449  .00002027  00000+0  22987-3 0  9993
2 40072  98.3675 344.2414 0005863  11.9673 348.1680 14.87568590625831
WORLDVIEW-3 (WV-3)      
1 40115U 14048A   26032.92362109  .00001119  00000+0  13834-3 0  9996
2 40115  97.8702 109.5784 0002444  63.5531 296.5935 14.84744485621835
GAOFEN-2                
1 40118U 14049A   26032.96583936  .00000375  00000+0  55658-4 0  9991
2 40118  98.0308  97.2058 0006502 320.4266  39.6471 14.80711251619221
YAOGAN-21               
1 40143U 14053A   26032.96230505  .00004442  00000+0  18402-3 0  9999
2 40143  97.1686  79.0497 0007655 200.8558 159.2369 15.24373644634342
YAOGAN-22               
1 40275U 14063A   26032.96671958 -.00000026  00000+0  55279-4 0  9996
2 40275 100.7471 182.1194 0006767 132.9559 227.2121 13.15525367542035
ASNARO                  
1 40298U 14070A   26032.90253984  .00008081  00000+0  38505-3 0  9998
2 40298  97.3580 112.5860 0004361 257.9620 102.1126 15.19368336623464
YAOGAN-24               
1 40310U 14072A   26032.98924110  .00000777  00000+0  11996-3 0  9998
2 40310  98.1250 169.3653 0012806 342.4099  17.6665 14.76148621603770
CBERS 4                 
1 40336U 14079A   26032.95528399  .00000002  00000+0  15187-4 0  9997
2 40336  98.3229  94.2005 0001292  53.9843 306.1463 14.35504621584558
YAOGAN-26               
1 40362U 14088A   26032.98957417  .00023842  00000+0  56858-3 0  9992
2 40362  97.0646  36.9161 0005547 152.6007 207.5534 15.41542271616839
SMAP                    
1 40376U 15003A   26032.96845301  .00000576  00000+0  12038-3 0  9992
2 40376  98.1300  41.9596 0001432  91.2434 268.8932 14.63427183587849
KOMPSAT-3A              
1 40536U 15014A   26032.97111515  .00026843  00000+0  49613-3 0  9990
2 40536  97.6823  15.2432 0064007 310.6364  48.9329 15.46742600600862
SENTINEL-2A             
1 40697U 15028A   26032.96302016  .00000084  00000+0  48817-4 0  9995
2 40697  98.5643 109.7880 0001093  96.6236 263.5072 14.30818124554394
GAOFEN-8                
1 40701U 15030A   26032.98377403  .00012251  00000+0  30026-3 0  9999
2 40701  97.6907 218.7066 0009839 323.0826  36.9741 15.40843897590592
CARBONITE 1 (CBNT-1)    
1 40718U 15032D   26032.99923499  .00002552  00000+0  31936-3 0  9996
2 40718  97.6419 216.8019 0015136  23.2124 336.9771 14.83040895569306
